HIMAWARI-8              
1 40267U 14060A   24008.88647855 -.00000251  00000+0  00000+0 0  9992
2 40267   0.0544 226.9486 0000672  86.4719 254.2841  1.00272511 33833
